QIANFAN-65              
1 62795U 25016L   26015.57786150  .00000119  00000+0  16549-3 0  9994
2 62795  88.9753  99.5629 0012631 239.4220 120.5686 13.50983306 51817
QIANFAN-66              
1 62796U 25016M   26015.60663414  .00000117  00000+0  16335-3 0  9997
2 62796  88.9772  99.5367 0013853 235.0501 124.9350 13.50988227 51867
QIANFAN-67              
1 62797U 25016N   26015.61077686  .00000118  00000+0  16432-3 0  9998
2 62797  88.9762  99.5585 0013641 242.5143 117.4622 13.50992427 51832
QIANFAN-68              
1 62798U 25016P   26015.60251377  .00000119  00000+0  16543-3 0  9993
2 62798  88.9766  99.6058 0013741 240.6338 119.3441 13.50984354 51817
QIANFAN-69              
1 62799U 25016Q   26015.61896410  .00000121  00000+0  16909-3 0  9997
2 62799  88.9745  99.4662 0014452 242.0783 117.8906 13.50984717 51850
QIANFAN-70              
1 62800U 25016R   26015.63549568  .00000126  00000+0  17673-3 0  9995
2 62800  88.9766  99.6102 0014316 231.4675 128.5194 13.50988546 51816
QIANFAN-71              
1 62801U 25016S   26015.63130137  .00000123  00000+0  17269-3 0  9992
2 62801  88.9759  99.5880 0014287 245.8572 114.1086 13.50987908 51815
QIANFAN-72              
1 62802U 25016T   26015.57368558  .00000119  00000+0  16536-3 0  9997
2 62802  88.9750  99.6040 0017387 254.8205 105.1024 13.50987764 51792
